[
    {
        "Altitude(m)": 702678.9809408884,
        "Argument of Periapsis(deg)": 0.0022780242373254137,
        "Eccentricity": 0.0,
        "Inclination(deg)": 45.0,
        "Latitude(deg)": 13.101877983294907,
        "Longitude(deg)": -16.745315441478198,
        "Mean Anomaly(deg)": 18.67024332949617,
        "RAAN(deg)": 69.99784961170835,
        "Satellite Name": "Constellation 1 309",
        "Satellite Number": 309,
        "Semi-Major Axis(m)": 7083131.272910544,
        "Time(s)": 38
    },
    {
        "Altitude(m)": 702679.5618836764,
        "Argument of Periapsis(deg)": 0.002337972243570819,
        "Eccentricity": 0.0,
        "Inclination(deg)": 45.0,
        "Latitude(deg)": 13.143909115529697,
        "Longitude(deg)": -16.704237985297823,
        "Mean Anomaly(deg)": 18.730944469746067,
        "RAAN(deg)": 69.9977930225428,
        "Satellite Name": "Constellation 1 309",
        "Satellite Number": 309,
        "Semi-Major Axis(m)": 7083131.272910544,
        "Time(s)": 39
    },
    {
        "Altitude(m)": 702680.1611539982,
        "Argument of Periapsis(deg)": 0.0023979202498162246,
        "Eccentricity": 0.0,
        "Inclination(deg)": 45.0,
        "Latitude(deg)": 13.185932202499282,
        "Longitude(deg)": -16.663145119358774,
        "Mean Anomaly(deg)": 18.791645609995953,
        "RAAN(deg)": 69.99773643337723,
        "Satellite Name": "Constellation 1 309",
        "Satellite Number": 309,
        "Semi-Major Axis(m)": 7083131.272910544,
        "Time(s)": 40
    },
    {
        "Altitude(m)": 702680.7787311173,
        "Argument of Periapsis(deg)": 0.00245786825606163,
        "Eccentricity": 0.0,
        "Inclination(deg)": 45.0,
        "Latitude(deg)": 13.227947214738565,
        "Longitude(deg)": -16.62203679048711,
        "Mean Anomaly(deg)": 18.852346750245864,
        "RAAN(deg)": 69.99767984421165,
        "Satellite Name": "Constellation 1 309",
        "Satellite Number": 309,
        "Semi-Major Axis(m)": 7083131.272910544,
        "Time(s)": 41
    },
    {
        "Altitude(m)": 702681.414594228,
        "Argument of Periapsis(deg)": 0.002517816262307036,
        "Eccentricity": 0.0,
        "Inclination(deg)": 45.0,
        "Latitude(deg)": 13.269954122752353,
        "Longitude(deg)": -16.580912945480264,
        "Mean Anomaly(deg)": 18.913047890495765,
        "RAAN(deg)": 69.99762325504608,
        "Satellite Name": "Constellation 1 309",
        "Satellite Number": 309,
        "Semi-Major Axis(m)": 7083131.272910544,
        "Time(s)": 42
    },
    {
        "Altitude(m)": 702682.068722453,
        "Argument of Periapsis(deg)": 0.0025777642685524413,
        "Eccentricity": 0.0,
        "Inclination(deg)": 45.0,
        "Latitude(deg)": 13.311952897015287,
        "Longitude(deg)": -16.53977353110697,
        "Mean Anomaly(deg)": 18.973749030745665,
        "RAAN(deg)": 69.99756666588051,
        "Satellite Name": "Constellation 1 309",
        "Satellite Number": 309,
        "Semi-Major Axis(m)": 7083131.272910544,
        "Time(s)": 43
    },
    {
        "Altitude(m)": 702682.7410948266,
        "Argument of Periapsis(deg)": 0.002637712274797847,
        "Eccentricity": 0.0,
        "Inclination(deg)": 45.0,
        "Latitude(deg)": 13.353943507971453,
        "Longitude(deg)": -16.49861866220423,
        "Mean Anomaly(deg)": 19.034450170995562,
        "RAAN(deg)": 69.99751007671493,
        "Satellite Name": "Constellation 1 309",
        "Satellite Number": 309,
        "Semi-Major Axis(m)": 7083131.272910544,
        "Time(s)": 44
    },
    {
        "Altitude(m)": 702683.4316903158,
        "Argument of Periapsis(deg)": 0.0026976602810432526,
        "Eccentricity": 0.0,
        "Inclination(deg)": 45.0,
        "Latitude(deg)": 13.395925926035428,
        "Longitude(deg)": -16.457447949289048,
        "Mean Anomaly(deg)": 19.095151311245463,
        "RAAN(deg)": 69.99745348754936,
        "Satellite Name": "Constellation 1 309",
        "Satellite Number": 309,
        "Semi-Major Axis(m)": 7083131.272910544,
        "Time(s)": 45
    },
    {
        "Altitude(m)": 702684.1404878106,
        "Argument of Periapsis(deg)": 0.0027576082872886585,
        "Eccentricity": 0.0,
        "Inclination(deg)": 45.0,
        "Latitude(deg)": 13.437900121590392,
        "Longitude(deg)": -16.416261507140714,
        "Mean Anomaly(deg)": 19.15585245149536,
        "RAAN(deg)": 69.99739689838378,
        "Satellite Name": "Constellation 1 309",
        "Satellite Number": 309,
        "Semi-Major Axis(m)": 7083131.272910544,
        "Time(s)": 46
    },
    {
        "Altitude(m)": 702684.8674661184,
        "Argument of Periapsis(deg)": 0.0028175562935340644,
        "Eccentricity": 0.0,
        "Inclination(deg)": 45.0,
        "Latitude(deg)": 13.479866064989249,
        "Longitude(deg)": -16.37505928241256,
        "Mean Anomaly(deg)": 19.21655359174525,
        "RAAN(deg)": 69.99734030921823,
        "Satellite Name": "Constellation 1 309",
        "Satellite Number": 309,
        "Semi-Major Axis(m)": 7083131.272910544,
        "Time(s)": 47
    },
    {
        "Altitude(m)": 702685.6126039831,
        "Argument of Periapsis(deg)": 0.00287750429977947,
        "Eccentricity": 0.0,
        "Inclination(deg)": 45.0,
        "Latitude(deg)": 13.521823726554217,
        "Longitude(deg)": -16.333841221728868,
        "Mean Anomaly(deg)": 19.27725473199516,
        "RAAN(deg)": 69.99728372005266,
        "Satellite Name": "Constellation 1 309",
        "Satellite Number": 309,
        "Semi-Major Axis(m)": 7083131.272910544,
        "Time(s)": 48
    },
    {
        "Altitude(m)": 702686.3758800644,
        "Argument of Periapsis(deg)": 0.002937452306024875,
        "Eccentricity": 0.0,
        "Inclination(deg)": 45.0,
        "Latitude(deg)": 13.563773076576632,
        "Longitude(deg)": -16.292607271684915,
        "Mean Anomaly(deg)": 19.337955872245047,
        "RAAN(deg)": 69.99722713088708,
        "Satellite Name": "Constellation 1 309",
        "Satellite Number": 309,
        "Semi-Major Axis(m)": 7083131.272910544,
        "Time(s)": 49
    },
    {
        "Altitude(m)": 702687.1572729462,
        "Argument of Periapsis(deg)": 0.0029974003122702807,
        "Eccentricity": 0.0,
        "Inclination(deg)": 45.0,
        "Latitude(deg)": 13.605714085316972,
        "Longitude(deg)": -16.251357378846947,
        "Mean Anomaly(deg)": 19.398657012494958,
        "RAAN(deg)": 69.99717054172152,
        "Satellite Name": "Constellation 1 309",
        "Satellite Number": 309,
        "Semi-Major Axis(m)": 7083131.272910544,
        "Time(s)": 50
    },
    {
        "Altitude(m)": 702687.956761143,
        "Argument of Periapsis(deg)": 0.0030573483185156866,
        "Eccentricity": 0.0,
        "Inclination(deg)": 45.0,
        "Latitude(deg)": 13.647646723004645,
        "Longitude(deg)": -16.210091489752035,
        "Mean Anomaly(deg)": 19.45935815274486,
        "RAAN(deg)": 69.99711395255595,
        "Satellite Name": "Constellation 1 309",
        "Satellite Number": 309,
        "Semi-Major Axis(m)": 7083131.272910544,
        "Time(s)": 51
    },
    {
        "Altitude(m)": 702688.7743230853,
        "Argument of Periapsis(deg)": 0.003117296324761092,
        "Eccentricity": 0.0,
        "Inclination(deg)": 45.0,
        "Latitude(deg)": 13.689570959837656,
        "Longitude(deg)": -16.168809719005093,
        "Mean Anomaly(deg)": 19.520059292994755,
        "RAAN(deg)": 69.99705736339038,
        "Satellite Name": "Constellation 1 309",
        "Satellite Number": 309,
        "Semi-Major Axis(m)": 7083131.272910544,
        "Time(s)": 52
    },
    {
        "Altitude(m)": 702689.6099371375,
        "Argument of Periapsis(deg)": 0.0031772443310064975,
        "Eccentricity": 0.0,
        "Inclination(deg)": 45.0,
        "Latitude(deg)": 13.731486765983643,
        "Longitude(deg)": -16.1275116768908,
        "Mean Anomaly(deg)": 19.580760433244656,
        "RAAN(deg)": 69.99700077422482,
        "Satellite Name": "Constellation 1 309",
        "Satellite Number": 309,
        "Semi-Major Axis(m)": 7083131.272910544,
        "Time(s)": 53
    },
    {
        "Altitude(m)": 702690.4635815864,
        "Argument of Periapsis(deg)": 0.0032371923372519038,
        "Eccentricity": 0.0,
        "Inclination(deg)": 45.0,
        "Latitude(deg)": 13.77339411157798,
        "Longitude(deg)": -16.086197477955615,
        "Mean Anomaly(deg)": 19.641461573494556,
        "RAAN(deg)": 69.99694418505925,
        "Satellite Name": "Constellation 1 309",
        "Satellite Number": 309,
        "Semi-Major Axis(m)": 7083131.272910544,
        "Time(s)": 54
    },
    {
        "Altitude(m)": 702691.3352346396,
        "Argument of Periapsis(deg)": 0.0032971403434973088,
        "Eccentricity": 0.0,
        "Inclination(deg)": 45.0,
        "Latitude(deg)": 13.815292966724911,
        "Longitude(deg)": -16.044867068619553,
        "Mean Anomaly(deg)": 19.702162713744457,
        "RAAN(deg)": 69.99688759589368,
        "Satellite Name": "Constellation 1 309",
        "Satellite Number": 309,
        "Semi-Major Axis(m)": 7083131.272910544,
        "Time(s)": 55
    },
    {
        "Altitude(m)": 702692.2248744335,
        "Argument of Periapsis(deg)": 0.0033570883497427146,
        "Eccentricity": 0.0,
        "Inclination(deg)": 45.0,
        "Latitude(deg)": 13.857183301497091,
        "Longitude(deg)": -16.003520395273465,
        "Mean Anomaly(deg)": 19.76286385399434,
        "RAAN(deg)": 69.9968310067281,
        "Satellite Name": "Constellation 1 309",
        "Satellite Number": 309,
        "Semi-Major Axis(m)": 7083131.272910544,
        "Time(s)": 56
    }
]